STARLINK-5455           
1 55668U 23021AS  26068.69367912 -.00000603  00000+0 -42751-4 0  9996
2 55668  70.0008 164.5072 0003390 273.9527  86.1245 14.98332438169278
LEMUR-2-MARACHE-FRAN    
1 63262U 25052BE  26068.70885648  .00008220  00000+0  68460-3 0  9999
2 63262  97.6985 323.5335 0002324  45.7689 314.3725 14.98898773 53859
